{"fetched_at":"2026-07-07T18:29:36.735Z","source":"https://celestrak.org/NORAD/elements/gp.php?NAME=LEGION&FORMAT=JSON","constellation":"maxar-legion","records":[{"OBJECT_NAME":"LEGION 1","OBJECT_ID":"2024-081A","EPOCH":"2026-07-07T11:32:13.909056","CLASSIFICATION_TYPE":"U","MEAN_MOTION":15.16809987,"ECCENTRICITY":0.0007827,"INCLINATION":97.5009,"RA_OF_ASC_NODE":266.1223,"ARG_OF_PERICENTER":301.7323,"MEAN_ANOMALY":58.3147,"EPHEMERIS_TYPE":0,"NORAD_CAT_ID":59625,"ELEMENT_SET_NO":999,"REV_AT_EPOCH":12061,"BSTAR":0.0001478,"MEAN_MOTION_DOT":0.00002839,"MEAN_MOTION_DDOT":0},{"OBJECT_NAME":"LEGION 2","OBJECT_ID":"2024-081B","EPOCH":"2026-07-07T12:15:49.514400","CLASSIFICATION_TYPE":"U","MEAN_MOTION":15.16788255,"ECCENTRICITY":0.0009866,"INCLINATION":97.501,"RA_OF_ASC_NODE":266.2492,"ARG_OF_PERICENTER":263.9048,"MEAN_ANOMALY":96.1061,"EPHEMERIS_TYPE":0,"NORAD_CAT_ID":59626,"ELEMENT_SET_NO":999,"REV_AT_EPOCH":12062,"BSTAR":0.00014739,"MEAN_MOTION_DOT":0.0000283,"MEAN_MOTION_DDOT":0},{"OBJECT_NAME":"LEGION 3","OBJECT_ID":"2024-146A","EPOCH":"2026-07-07T11:50:15.558432","CLASSIFICATION_TYPE":"U","MEAN_MOTION":15.15623652,"ECCENTRICITY":0.0008815,"INCLINATION":45.0018,"RA_OF_ASC_NODE":281.6706,"ARG_OF_PERICENTER":293.7294,"MEAN_ANOMALY":66.2659,"EPHEMERIS_TYPE":0,"NORAD_CAT_ID":60452,"ELEMENT_SET_NO":999,"REV_AT_EPOCH":10510,"BSTAR":0.00011778,"MEAN_MOTION_DOT":0.00002014,"MEAN_MOTION_DDOT":0},{"OBJECT_NAME":"LEGION 4","OBJECT_ID":"2024-146B","EPOCH":"2026-07-07T11:51:19.502208","CLASSIFICATION_TYPE":"U","MEAN_MOTION":15.16200191,"ECCENTRICITY":0.0011538,"INCLINATION":45.0022,"RA_OF_ASC_NODE":13.5453,"ARG_OF_PERICENTER":63.5933,"MEAN_ANOMALY":296.6129,"EPHEMERIS_TYPE":0,"NORAD_CAT_ID":60453,"ELEMENT_SET_NO":999,"REV_AT_EPOCH":10395,"BSTAR":0.000157,"MEAN_MOTION_DOT":0.00002822,"MEAN_MOTION_DDOT":0},{"OBJECT_NAME":"LEGION 5","OBJECT_ID":"2025-025A","EPOCH":"2026-07-07T00:48:40.053024","CLASSIFICATION_TYPE":"U","MEAN_MOTION":15.16039988,"ECCENTRICITY":0.0008565,"INCLINATION":45,"RA_OF_ASC_NODE":194.9862,"ARG_OF_PERICENTER":261.7469,"MEAN_ANOMALY":98.2439,"EPHEMERIS_TYPE":0,"NORAD_CAT_ID":62900,"ELEMENT_SET_NO":999,"REV_AT_EPOCH":7750,"BSTAR":0.00013594,"MEAN_MOTION_DOT":0.00002396,"MEAN_MOTION_DDOT":0},{"OBJECT_NAME":"LEGION 6","OBJECT_ID":"2025-025B","EPOCH":"2026-07-07T02:19:30.623808","CLASSIFICATION_TYPE":"U","MEAN_MOTION":15.15651413,"ECCENTRICITY":0.0010538,"INCLINATION":45.0003,"RA_OF_ASC_NODE":103.7701,"ARG_OF_PERICENTER":235.5805,"MEAN_ANOMALY":124.4077,"EPHEMERIS_TYPE":0,"NORAD_CAT_ID":62901,"ELEMENT_SET_NO":999,"REV_AT_EPOCH":7865,"BSTAR":0.00018416,"MEAN_MOTION_DOT":0.00003302,"MEAN_MOTION_DDOT":0}]}
